start=new Date('2022-08-11T00:00:00.000Z').valueOf();
sats=[{"ECCENTRICITY":"0.00016390","GP_ID":"209999117","ELEMENT_SET_NO":"999","NORAD_CAT_ID":"52630","LAUNCH_DATE":"2022-05-14","DECAY_DATE":null,"COUNTRY_CODE":"US","APOAPSIS":"540.929","EPHEMERIS_TYPE":"0","EPOCH":"2022-08-10T22:00:00.999936","PERIAPSIS":"538.661","ARG_OF_PERICENTER":"53.9411","FILE":"3533963","TIME_SYSTEM":"UTC","INCLINATION":"53.2185","OBJECT_TYPE":"PAYLOAD","REV_AT_EPOCH":"130","BSTAR":"0.00244940000000","MEAN_ANOMALY":"185.8458","OBJECT_NAME":"STARLINK-3989","TLE_LINE2":"2 52630  53.2185  15.4406 0001639  53.9411 185.8458 15.08823883  1303","CLASSIFICATION_TYPE":"U","REF_FRAME":"TEME","SITE":"AFETR","MEAN_ELEMENT_THEORY":"SGP4","RCS_SIZE":"LARGE","SEMIMAJOR_AXIS":"6917.930","MEAN_MOTION_DOT":"0.00038892","MEAN_MOTION":"15.08823883","MEAN_MOTION_DDOT":"0.0000000000000","OBJECT_ID":"2022-052AJ","PERIOD":"95.439","CENTER_NAME":"EARTH","RA_OF_ASC_NODE":"15.4406","TLE_LINE1":"1 52630U 22052AJ  22222.91667824  .00038892  00000-0  24494-2 0  9995"},{"EPHEMERIS_TYPE":"0","APOAPSIS":"540.725","COUNTRY_CODE":"US","DECAY_DATE":null,"LAUNCH_DATE":"2022-05-14","NORAD_CAT_ID":"52631","ELEMENT_SET_NO":"999","GP_ID":"209998874","ECCENTRICITY":"0.00012480","MEAN_ANOMALY":"237.8513","BSTAR":"0.00353030000000","REV_AT_EPOCH":"130","OBJECT_TYPE":"PAYLOAD","INCLINATION":"53.2175","TIME_SYSTEM":"UTC","ARG_OF_PERICENTER":"81.9182","FILE":"3533963","PERIAPSIS":"538.998","EPOCH":"2022-08-10T22:00:00.999936","RCS_SIZE":"LARGE","MEAN_ELEMENT_THEORY":"SGP4","SITE":"AFETR","REF_FRAME":"TEME","CLASSIFICATION_TYPE":"U","TLE_LINE2":"2 52631  53.2175  15.4456 0001248  81.9182 237.8513 15.08802097  1304","OBJECT_NAME":"STARLINK-3794","TLE_LINE1":"1 52631U 22052AK  22222.91667824  .00056287  00000-0  35303-2 0  9995","RA_OF_ASC_NODE":"15.4456","CENTER_NAME":"EARTH","PERIOD":"95.440","OBJECT_ID":"2022-052AK","MEAN_MOTION_DDOT":"0.0000000000000","MEAN_MOTION":"15.08802097","SEMIMAJOR_AXIS":"6917.996","MEAN_MOTION_DOT":"0.00056287"},{"REV_AT_EPOCH":"130","BSTAR":"0.00238060000000","MEAN_ANOMALY":"241.3356","OBJECT_TYPE":"PAYLOAD","INCLINATION":"53.2159","TIME_SYSTEM":"UTC","ARG_OF_PERICENTER":"66.8956","FILE":"3533963","PERIAPSIS":"544.010","EPOCH":"2022-08-10T22:00:00.999936","EPHEMERIS_TYPE":"0","APOAPSIS":"545.734","DECAY_DATE":null,"COUNTRY_CODE":"US","LAUNCH_DATE":"2022-05-14","NORAD_CAT_ID":"52632","ELEMENT_SET_NO":"999","GP_ID":"209999382","ECCENTRICITY":"0.00012450","TLE_LINE1":"1 52632U 22052AL  22222.91667824  .00036099  00000-0  23806-2 0  9990","RA_OF_ASC_NODE":"15.3429","CENTER_NAME":"EARTH","PERIOD":"95.544","OBJECT_ID":"2022-052AL","MEAN_MOTION_DDOT":"0.0000000000000","MEAN_MOTION":"15.07164324","SEMIMAJOR_AXIS":"6923.007","MEAN_MOTION_DOT":"0.00036099","RCS_SIZE":"LARGE","MEAN_ELEMENT_THEORY":"SGP4","SITE":"AFETR","REF_FRAME":"TEME","CLASSIFICATION_TYPE":"U","TLE_LINE2":"2 52632  53.2159  15.3429 0001245  66.8956 241.3356 15.07164324  1302","OBJECT_NAME":"STARLINK-3995"},{"TLE_LINE2":"2 52633  53.2168  15.4349 0001327  72.5561 307.2345 15.08822301  1309","OBJECT_NAME":"STARLINK-3994","CLASSIFICATION_TYPE":"U","REF_FRAME":"TEME","SITE":"AFETR","MEAN_ELEMENT_THEORY":"SGP4","RCS_SIZE":"LARGE","SEMIMAJOR_AXIS":"6917.934","MEAN_MOTION_DOT":"0.00039217","MEAN_MOTION":"15.08822301","MEAN_MOTION_DDOT":"0.0000000000000","PERIOD":"95.439","OBJECT_ID":"2022-052AM","RA_OF_ASC_NODE":"15.4349","CENTER_NAME":"EARTH","TLE_LINE1":"1 52633U 22052AM  22222.91667824  .00039217  00000-0  24697-2 0  9995","ECCENTRICITY":"0.00013270","GP_ID":"209998609","ELEMENT_SET_NO":"999","NORAD_CAT_ID":"52633","LAUNCH_DATE":"2022-05-14","APOAPSIS":"540.717","COUNTRY_CODE":"US","DECAY_DATE":null,"EPHEMERIS_TYPE":"0","EPOCH":"2022-08-10T22:00:00.999936","PERIAPSIS":"538.881","ARG_OF_PERICENTER":"72.5561","FILE":"3533963","INCLINATION":"53.2168","TIME_SYSTEM":"UTC","OBJECT_TYPE":"PAYLOAD","REV_AT_EPOCH":"130","BSTAR":"0.00246970000000","MEAN_ANOMALY":"307.2345"},{"TLE_LINE1":"1 52634U 22052AN  22222.91667824  .00037257  00000-0  23476-2 0  9992","RA_OF_ASC_NODE":"15.4385","CENTER_NAME":"EARTH","PERIOD":"95.438","OBJECT_ID":"2022-052AN","MEAN_MOTION_DDOT":"0.0000000000000","MEAN_MOTION":"15.08825568","SEMIMAJOR_AXIS":"6917.925","MEAN_MOTION_DOT":"0.00037257","RCS_SIZE":"LARGE","MEAN_ELEMENT_THEORY":"SGP4","SITE":"AFETR","REF_FRAME":"TEME","CLASSIFICATION_TYPE":"U","TLE_LINE2":"2 52634  53.2188  15.4385 0001389  58.3370 256.1877 15.08825568  1300","OBJECT_NAME":"STARLINK-3974","MEAN_ANOMALY":"256.1877","BSTAR":"0.00234760000000","REV_AT_EPOCH":"130","OBJECT_TYPE":"PAYLOAD","INCLINATION":"53.2188","TIME_SYSTEM":"UTC","FILE":"3533963","ARG_OF_PERICENTER":"58.3370","PERIAPSIS":"538.829","EPOCH":"2022-08-10T22:00:00.999936","EPHEMERIS_TYPE":"0","APOAPSIS":"540.750","DECAY_DATE":null,"COUNTRY_CODE":"US","LAUNCH_DATE":"2022-05-14","NORAD_CAT_ID":"52634","ELEMENT_SET_NO":"999","GP_ID":"209998720","ECCENTRICITY":"0.00013890"},{"REF_FRAME":"TEME","SITE":"AFETR","MEAN_ELEMENT_THEORY":"SGP4","RCS_SIZE":"LARGE","TLE_LINE2":"2 52635  53.2171   6.3120 0001336  54.5500  10.1418 15.31609202  1304","OBJECT_NAME":"STARLINK-3978","CLASSIFICATION_TYPE":"U","MEAN_MOTION_DDOT":"0.0000000000000","PERIOD":"94.019","OBJECT_ID":"2022-052AP","RA_OF_ASC_NODE":"6.3120","CENTER_NAME":"EARTH","TLE_LINE1":"1 52635U 22052AP  22222.91667824 -.01065401  00000-0 -37531-1 0  9994","SEMIMAJOR_AXIS":"6849.148","MEAN_MOTION_DOT":"-0.01065401","MEAN_MOTION":"15.31609202","NORAD_CAT_ID":"52635","LAUNCH_DATE":"2022-05-14","APOAPSIS":"471.928","DECAY_DATE":null,"COUNTRY_CODE":"US","EPHEMERIS_TYPE":"0","ECCENTRICITY":"0.00013360","GP_ID":"209998477","ELEMENT_SET_NO":"999","ARG_OF_PERICENTER":"54.5500","FILE":"3533963","INCLINATION":"53.2171","TIME_SYSTEM":"UTC","OBJECT_TYPE":"PAYLOAD","BSTAR":"-0.03753100000000","REV_AT_EPOCH":"130","MEAN_ANOMALY":"10.1418","EPOCH":"2022-08-10T22:00:00.999936","PERIAPSIS":"470.098"},{"FILE":"3533963","ARG_OF_PERICENTER":"69.9593","TIME_SYSTEM":"UTC","INCLINATION":"53.2177","OBJECT_TYPE":"PAYLOAD","BSTAR":"0.00234650000000","REV_AT_EPOCH":"130","MEAN_ANOMALY":"269.8100","EPOCH":"2022-08-10T22:00:00.999936","PERIAPSIS":"538.982","NORAD_CAT_ID":"52636","LAUNCH_DATE":"2022-05-14","DECAY_DATE":null,"COUNTRY_CODE":"US","APOAPSIS":"540.648","EPHEMERIS_TYPE":"0","ECCENTRICITY":"0.00012040","GP_ID":"209999250","ELEMENT_SET_NO":"999","MEAN_MOTION_DDOT":"0.0000000000000","OBJECT_ID":"2022-052AQ","PERIOD":"95.439","CENTER_NAME":"EARTH","RA_OF_ASC_NODE":"15.4364","TLE_LINE1":"1 52636U 22052AQ  22222.91667824  .00037231  00000-0  23465-2 0  9994","MEAN_MOTION_DOT":"0.00037231","SEMIMAJOR_AXIS":"6917.950","MEAN_MOTION":"15.08817359","REF_FRAME":"TEME","SITE":"AFETR","MEAN_ELEMENT_THEORY":"SGP4","RCS_SIZE":"LARGE","OBJECT_NAME":"STARLINK-3967","TLE_LINE2":"2 52636  53.2177  15.4364 0001204  69.9593 269.8100 15.08817359  1307","CLASSIFICATION_TYPE":"U"},{"PERIOD":"94.001","OBJECT_ID":"2022-052AR","MEAN_MOTION_DDOT":"0.0000000000000","TLE_LINE1":"1 52637U 22052AR  22222.91667824 -.01065465  00000-0 -37183-1 0  9999","RA_OF_ASC_NODE":"6.3203","CENTER_NAME":"EARTH","MEAN_MOTION_DOT":"-0.01065465","SEMIMAJOR_AXIS":"6848.262","MEAN_MOTION":"15.31906397","SITE":"AFETR","REF_FRAME":"TEME","RCS_SIZE":"LARGE","MEAN_ELEMENT_THEORY":"SGP4","CLASSIFICATION_TYPE":"U","TLE_LINE2":"2 52637  53.2171   6.3203 0001475  46.8614  27.0626 15.31906397  1305","OBJECT_NAME":"STARLINK-3961","INCLINATION":"53.2171","TIME_SYSTEM":"UTC","FILE":"3533963","ARG_OF_PERICENTER":"46.8614","MEAN_ANOMALY":"27.0626","BSTAR":"-0.03718300000000","REV_AT_EPOCH":"130","OBJECT_TYPE":"PAYLOAD","EPOCH":"2022-08-10T22:00:00.999936","PERIAPSIS":"469.117","LAUNCH_DATE":"2022-05-14","NORAD_CAT_ID":"52637","EPHEMERIS_TYPE":"0","APOAPSIS":"471.137","COUNTRY_CODE":"US","DECAY_DATE":null,"GP_ID":"209999007","ECCENTRICITY":"0.00014750","ELEMENT_SET_NO":"999"},{"LAUNCH_DATE":"2022-05-14","NORAD_CAT_ID":"52638","EPHEMERIS_TYPE":"0","APOAPSIS":"540.662","DECAY_DATE":null,"COUNTRY_CODE":"US","GP_ID":"209999118","ECCENTRICITY":"0.00012190","ELEMENT_SET_NO":"999","INCLINATION":"53.2173","TIME_SYSTEM":"UTC","FILE":"3533963","ARG_OF_PERICENTER":"75.0988","BSTAR":"0.00228340000000","MEAN_ANOMALY":"284.6991","REV_AT_EPOCH":"130","OBJECT_TYPE":"PAYLOAD","EPOCH":"2022-08-10T22:00:00.999936","PERIAPSIS":"538.975","SITE":"AFETR","REF_FRAME":"TEME","RCS_SIZE":"LARGE","MEAN_ELEMENT_THEORY":"SGP4","CLASSIFICATION_TYPE":"U","TLE_LINE2":"2 52638  53.2173  15.4369 0001219  75.0988 284.6991 15.08816028  1307","OBJECT_NAME":"STARLINK-3941","PERIOD":"95.439","OBJECT_ID":"2022-052AS","MEAN_MOTION_DDOT":"0.0000000000000","TLE_LINE1":"1 52638U 22052AS  22222.91667824  .00036215  00000-0  22834-2 0  9996","RA_OF_ASC_NODE":"15.4369","CENTER_NAME":"EARTH","MEAN_MOTION_DOT":"0.00036215","SEMIMAJOR_AXIS":"6917.954","MEAN_MOTION":"15.08816028"},{"BSTAR":"-0.03615900000000","MEAN_ANOMALY":"46.2559","REV_AT_EPOCH":"130","OBJECT_TYPE":"PAYLOAD","TIME_SYSTEM":"UTC","INCLINATION":"53.2171","ARG_OF_PERICENTER":"54.5272","FILE":"3533963","PERIAPSIS":"466.507","EPOCH":"2022-08-10T22:00:00.999936","EPHEMERIS_TYPE":"0","DECAY_DATE":null,"COUNTRY_CODE":"US","APOAPSIS":"468.434","LAUNCH_DATE":"2022-05-14","NORAD_CAT_ID":"52639","ELEMENT_SET_NO":"999","GP_ID":"209998875","ECCENTRICITY":"0.00014070","TLE_LINE1":"1 52639U 22052AT  22222.91667824 -.01065682  00000-0 -36159-1 0  9994","CENTER_NAME":"EARTH","RA_OF_ASC_NODE":"6.3448","OBJECT_ID":"2022-052AT","PERIOD":"93.946","MEAN_MOTION_DDOT":"0.0000000000000","MEAN_MOTION":"15.32798096","SEMIMAJOR_AXIS":"6845.606","MEAN_MOTION_DOT":"-0.01065682","RCS_SIZE":"LARGE","MEAN_ELEMENT_THEORY":"SGP4","SITE":"AFETR","REF_FRAME":"TEME","CLASSIFICATION_TYPE":"U","OBJECT_NAME":"STARLINK-3968","TLE_LINE2":"2 52639  53.2171   6.3448 0001407  54.5272  46.2559 15.32798096  1303"}];
